[{"OBJECT_NAME":"STARLINK-4549","OBJECT_ID":"2022-097AX","EPOCH":"2026-03-09T10:09:51.074784","MEAN_MOTION":15.08840897,"ECCENTRICITY":0.0001434,"INCLINATION":53.2173,"RA_OF_ASC_NODE":105.3137,"ARG_OF_PERICENTER":83.3187,"MEAN_ANOMALY":276.7968,"EPHEMERIS_TYPE":0,"CLASSIFICATION_TYPE":"U","NORAD_CAT_ID":53433,"ELEMENT_SET_NO":999,"REV_AT_EPOCH":19872,"BSTAR":1.3864888e-5,"MEAN_MOTION_DOT":-6.7e-7,"MEAN_MOTION_DDOT":0},{"OBJECT_NAME":"USA 76","OBJECT_ID":"1991-076D","EPOCH":"2026-03-09T13:26:15.944928","MEAN_MOTION":13.58542045,"ECCENTRICITY":0.0886705,"INCLINATION":63.2994,"RA_OF_ASC_NODE":60.1095,"ARG_OF_PERICENTER":72.6365,"MEAN_ANOMALY":296.9601,"EPHEMERIS_TYPE":0,"CLASSIFICATION_TYPE":"U","NORAD_CAT_ID":21808,"ELEMENT_SET_NO":999,"REV_AT_EPOCH":9249,"BSTAR":0.00059173,"MEAN_MOTION_DOT":7.457e-5,"MEAN_MOTION_DDOT":0}]
